[{"OBJECT_NAME":"STARLINK-36158","OBJECT_ID":"2025-298F","EPOCH":"2026-03-09T21:39:48.216096","MEAN_MOTION":14.98330434,"ECCENTRICITY":0.00024965,"INCLINATION":70.0011,"RA_OF_ASC_NODE":13.7454,"ARG_OF_PERICENTER":273.3529,"MEAN_ANOMALY":86.7344,"EPHEMERIS_TYPE":0,"CLASSIFICATION_TYPE":"U","NORAD_CAT_ID":67080,"ELEMENT_SET_NO":999,"REV_AT_EPOCH":1325,"BSTAR":0.00042338517,"MEAN_MOTION_DOT":4.962e-5,"MEAN_MOTION_DDOT":0},{"OBJECT_NAME":"CZ-2C DEB","OBJECT_ID":"2026-009C","EPOCH":"2026-03-09T19:20:16.840608","MEAN_MOTION":15.15876918,"ECCENTRICITY":0.01015815,"INCLINATION":97.2202,"RA_OF_ASC_NODE":140.8028,"ARG_OF_PERICENTER":36.3959,"MEAN_ANOMALY":324.4125,"EPHEMERIS_TYPE":0,"CLASSIFICATION_TYPE":"U","NORAD_CAT_ID":67586,"ELEMENT_SET_NO":999,"REV_AT_EPOCH":810,"BSTAR":0.0025681251,"MEAN_MOTION_DOT":0.0005635,"MEAN_MOTION_DDOT":0}]
